[{"OBJECT_NAME":"NINGXIA-1 10","OBJECT_ID":"2021-064E","EPOCH":"2026-03-09T23:44:17.361312","MEAN_MOTION":14.0853583,"ECCENTRICITY":0.00072731,"INCLINATION":45.0007,"RA_OF_ASC_NODE":314.6094,"ARG_OF_PERICENTER":147.7012,"MEAN_ANOMALY":212.4271,"EPHEMERIS_TYPE":0,"CLASSIFICATION_TYPE":"U","NORAD_CAT_ID":49022,"ELEMENT_SET_NO":999,"REV_AT_EPOCH":24024,"BSTAR":-7.1787842e-5,"MEAN_MOTION_DOT":-2.56e-6,"MEAN_MOTION_DDOT":0},{"OBJECT_NAME":"FENGYUN 1C DEB","OBJECT_ID":"1999-025DXG","EPOCH":"2026-03-02T03:45:59.469984","MEAN_MOTION":14.14780411,"ECCENTRICITY":0.00617864,"INCLINATION":98.5721,"RA_OF_ASC_NODE":40.9678,"ARG_OF_PERICENTER":185.9786,"MEAN_ANOMALY":174.0658,"EPHEMERIS_TYPE":0,"CLASSIFICATION_TYPE":"U","NORAD_CAT_ID":36279,"ELEMENT_SET_NO":999,"REV_AT_EPOCH":90162,"BSTAR":0.00012243034,"MEAN_MOTION_DOT":1.99e-6,"MEAN_MOTION_DDOT":0}]
